NUSAT-1 (FRESCO)        
1 41557U 16033B   22233.88920926  .00012764  00000+0  36510-3 0  9998
2 41557  97.3895 331.7644 0011562 138.4159   0.2843 15.36034152347426
BEESAT-4                
1 41619U 16040W   22233.89378047  .00011284  00000+0  35996-3 0  9990
2 41619  97.2122 282.8240 0007798 233.8819 126.1702 15.32637765330748
CAS-2T & KS-1Q          
1 41847U 16066G   22233.78998420  .00000467  00000+0  79801-4 0  9997
2 41847  98.5464 298.3742 0363690  14.6235 346.5146 14.38697950303743
NAYIF-1 (EO-88)         
1 42017U 17008BX  22233.66586887  .00012181  00000+0  34490-3 0  9991
2 42017  97.2644 298.8970 0004914  31.3737 328.7799 15.36413720307088
ZHUHAI-1 02 (CAS-4B)    
1 42759U 17034B   22233.78314041  .00003384  00000+0  20462-3 0  9996
2 42759  43.0192 332.4990 0010065 334.0254 159.4894 15.12295219286240
ZHUHAI-1 01 (CAS-4A)    
1 42761U 17034D   22233.74974949  .00003343  00000+0  20184-3 0  9990
2 42761  43.0188 331.4201 0010732 337.1362 159.9020 15.12381265286240
MAX VALIER SAT          
1 42778U 17036P   22233.90007893  .00006084  00000+0  22570-3 0  9999
2 42778  97.2012 272.7731 0012571  94.6087 265.6589 15.27876711286899
RADFXSAT (FOX-1B)       
1 43017U 17073E   22233.67911757  .00003149  00000+0  23922-3 0  9995
2 43017  97.6662 125.1932 0246605 334.5590  24.3646 14.81843571256772
FOX-1D (AO-92)          
1 43137U 18004AC  22233.76254703  .00007988  00000+0  27371-3 0  9991
2 43137  97.3653 308.3653 0008899 125.0096 235.1982 15.30431311256339
DIWATA-2B               
1 43678U 18084H   22233.89574625  .00000790  00000+0  83171-4 0  9996
2 43678  97.9795   7.9626 0011236  71.3895 288.8512 14.92264846207618
ES'HAIL 2               
1 43700U 18090A   22233.84934653  .00000140  00000+0  00000+0 0  9999
2 43700   0.0165 108.4742 0002141  89.6853 103.5197  1.00274664 13922
FOX-1CLIFF (AO-95)      
1 43770U 18099N   22233.71311564  .00001751  00000+0  15804-3 0  9992
2 43770  97.6158 298.3640 0015104  60.7534 299.5196 14.96691984202773
ITASAT 1                
1 43786U 18099AE  22233.83448633  .00001110  00000+0  10170-3 0  9990
2 43786  97.6190 299.4359 0015785  52.4818 307.7835 14.96804815202831
JY1SAT (JO-97)          
1 43803U 18099AX  22233.69574862  .00001283  00000+0  11514-3 0  9992
2 43803  97.6154 299.0760 0015619  51.7534 308.5092 14.97359465202837
UWE-4                   
1 43880U 18111E   22233.71505815  .00001252  00000+0  10960-3 0  9997
2 43880  97.6618 138.8829 0013121  98.1955 262.0757 14.98444760199472
NEXUS (FO-99)           
1 43937U 19003F   22233.64345523  .00008356  00000+0  27128-3 0  9997
2 43937  97.1275 264.5017 0017838 280.6725  79.2509 15.32032559199951
PSAT2 (NO-104)          
1 44354U 19036R   22232.94862452  .00044877 -59005-5  35284-3 0  9990
2 44354  28.5248  89.0750 0209617 341.4277  17.8766 15.45778261174657
JAISAT-1                
1 44419U 19038F   22233.90395319  .00005480  00000+0  27059-3 0  9996
2 44419  97.6403 204.6109 0016818 264.1191  95.8126 15.18184776172989
DUCHIFAT-3              
1 44854U 19089C   22233.91118410  .00002887  00000+0  22535-3 0  9993
2 44854  36.9651  72.1764 0008232  21.9336 110.6575 15.01428156147777
CAS-6 (TIANQIN 1)       
1 44881U 19093C   22233.81106542  .00000415  00000+0  59255-4 0  9995
2 44881  97.8908 312.0777 0014548 339.2482  20.8131 14.81789963144457
RS-44 & BREEZE-KM R/B   
1 44909U 19096E   22233.86424165  .00000031  00000+0  76877-4 0  9991
2 44909  82.5235 186.8221 0217539 166.5007 194.2044 12.79714434123870
ORBITAL FACTORY 2 (OF-2)
1 45113U 19071C   22233.87710328  .00024266  00000+0  45675-3 0  9999
2 45113  51.6377  96.7620 0008959  59.4551 300.7321 15.48361474143507
HUSKYSAT-1 (HO-107)     
1 45119U 19071J   22233.86480034  .00019775  00000+0  39125-3 0  9994
2 45119  51.6374  97.4001 0008958  55.1659 305.0170 15.47055199143482
BY70-2                  
1 45857U 20042B   22233.93234146  .00005165  00000+0  68132-3 0  9990
2 45857  97.9531 310.1722 0008881 261.2178  98.8031 14.80475248115147
SALSAT                  
1 46495U 20068K   22233.80197688  .00001734  00000+0  12719-3 0  9990
2 46495  97.7309 175.1407 0017755  58.8691 301.4274 15.04732893104011
BY70-3                  
1 46839U 20079N   22233.93563403  .00023315  00000+0  50401-3 0  9999
2 46839  97.1939 305.2680 0006869  97.7383  12.9819 15.44476442100349
RADFXSAT-2 (AO-109)     
1 47311U 21002C   22233.87119503  .00006802  00000+0  26891-3 0  9991
2 47311  60.6855 115.8253 0028209  24.8867 335.3575 15.26176490 88445
UVSQ-SAT                
1 47438U 21006AB  22233.69072481  .00004183  00000+0  21883-3 0  9994
2 47438  97.4329 291.3703 0012941  54.4535 305.7903 15.16322420 87165
DIY-1 (ARDUIQUBE)       
1 47963U 21022AH  22233.69736880  .00009850  00000+0  52720-3 0  9995
2 47963  97.5245 134.3556 0013952 267.2891  92.6744 15.15161558 76828
XW-3 (CAS-9)            
1 50466U 21131B   22233.90294211  .00000053  00000+0  31795-4 0  9995
2 50466  98.5781 311.1191 0003547 325.4224  34.6732 14.38516649 34323
TEVEL-3                 
1 50988U 22002E   22233.90052241  .00006202  00000+0  33412-3 0  9996
2 50988  97.4768 299.8059 0009326 188.4930 287.0217 15.15127692 33325
TEVEL-8                 
1 50989U 22002F   22233.90780309  .00006368  00000+0  34347-3 0  9991
2 50989  97.4784 299.8376 0009328 187.6290 287.4391 15.15075873 33328
TEVEL-5                 
1 50998U 22002Q   22233.90052257  .00006421  00000+0  34089-3 0  9998
2 50998  97.4760 299.9364 0010965 184.9574 290.7572 15.15619591 33334
TEVEL-6                 
1 50999U 22002R   22233.96794302  .00006401  00000+0  33979-3 0  9994
2 50999  97.4759 300.0003 0010856 184.9474 301.2881 15.15624625 33341
TEVEL-1                 
1 51013U 22002AF  22233.90423060  .00006237  00000+0  33624-3 0  9990
2 51013  97.4768 299.7883 0009332 188.1380 289.7418 15.15102015 33326
TEVEL-7                 
1 51062U 22002CG  22233.90948848  .00006401  00000+0  34528-3 0  9997
2 51062  97.4777 299.8262 0009329 186.6037 288.3809 15.15067622 33323
TEVEL-4                 
1 51063U 22002CH  22233.91032757  .00006414  00000+0  34608-3 0  9995
2 51063  97.4780 299.8234 0009258 186.5142 288.5163 15.15058555 33324
TEVEL-2                 
1 51069U 22002CP  22233.90204063  .00006241  00000+0  33625-3 0  9997
2 51069  97.4767 299.7930 0009320 188.4173 288.1414 15.15120294 33327
RS3S                    
1 53308U 98067TT  22233.86250176  .00036867  00000+0  60253-3 0  9994
2 53308  51.6421  11.0118 0001893 132.9802 227.1347 15.52175926  4911
RS1S                    
1 53309U 98067TU  22233.66861359  .00034365  00000+0  56145-3 0  9990
2 53309  51.6419  11.9660 0002428 154.8376 205.2733 15.52218758  4832
RS5S                    
1 53310U 98067TV  22233.86201856  .00036038  00000+0  58938-3 0  9995
2 53310  51.6423  11.0089 0002129 156.9744 203.1342 15.52167763  4893
RS6S                    
1 53311U 98067TW  22233.86011565  .00038923  00000+0  63108-3 0  9992
2 53311  51.6418  10.9949 0001633 121.0631 239.0519 15.52373293  4912
RS9S                    
1 53312U 98067TX  22233.86069507  .00037729  00000+0  61383-3 0  9998
2 53312  51.6423  10.9989 0002573 159.2741 200.8354 15.52290251  4850
RS12S                   
1 53313U 98067TY  22233.85980557  .00036773  00000+0  59756-3 0  9994
2 53313  51.6422  10.9938 0002115 166.7122 193.3924 15.52337362  4902
RS4S                    
1 53321U 98067TZ  22233.86296149  .00036848  00000+0  60237-3 0  9990
2 53321  51.6425  11.0162 0001962 143.4497 216.6627 15.52169342  4901
RS29S (SXC3-2110 CYCLO*)
1 53373U 22096D   22233.93053118  .00007560  00000+0  30970-3 0  9991
2 53373  97.4347 135.3026 0003213 107.7439  22.9730 15.24568442  1923
RS32S (SXC3-212 MONITO*)
1 53374U 22096E   22233.98165803  .00007920  00000+0  32324-3 0  9997
2 53374  97.4352 135.3556 0003549 104.6749 311.2464 15.24677429  1935
RS34S (SXC3-218 KUZBAS*)
1 53375U 22096F   22233.92971024  .00006347  00000+0  25964-3 0  9996
2 53375  97.4350 135.3056 0003458 103.5756  28.3353 15.24680806  1929
RS23S (SXC3-21 UTMN)    
1 53376U 22096G   22233.92954612  .00007101  00000+0  28978-3 0  9998
2 53376  97.4351 135.3049 0003550 102.1534  30.4292 15.24722877  1926
RS28S (SXC3-214 MIET-A*)
1 53377U 22096H   22233.92924197  .00006836  00000+0  27887-3 0  9996
2 53377  97.4355 135.3072 0003483 101.8899  30.3857 15.24748745  1920
RS26S (KAI-1)           
1 53378U 22096J   22233.92863300  .00006096  00000+0  24878-3 0  9990
2 53378  97.4350 135.3055 0003421  97.9844  32.7357 15.24780123  1921
RS19S (SXC3-219 ISOI)   
1 53381U 22096M   22233.92528855  .00006620  00000+0  26656-3 0  9996
2 53381  97.4342 135.3099 0005820  60.8920  69.7055 15.25188229  1928
RS21S (CUBESX-HSE-2)    
1 53383U 22096P   22233.91274049  .00006781  00000+0  27246-3 0  9994
2 53383  97.4353 135.2971 0006096  58.4608   6.1041 15.25250690  1924
RS30S (SXC3-217 SIREN)  
1 53384U 22096Q   22233.91275556  .00006646  00000+0  26694-3 0  9995
2 53384  97.4346 135.2986 0006156  57.6742   8.0056 15.25270034  1921
RS20S (GEOSCAN-EDELVEIS)
1 53385U 22096R   22233.91157789  .00007721  00000+0  30810-3 0  9993
2 53385  97.4343 135.3008 0006644  58.3630   7.5065 15.25431791  1957
RS33S (SXC3-215 VIZARD) 
1 53386U 22096S   22233.92175493  .00009418  00000+0  37247-3 0  9993
2 53386  97.4344 135.3154 0007348  57.8631  73.4287 15.25663384  1940
CUTE-1 (CO-55)          
1 27844U 03031E   22233.84275362  .00000157  00000+0  89833-4 0  9998
2 27844  98.6799 240.5442 0008632 273.7705  86.2485 14.22482248993164
CUBESAT XI-IV (CO-57)   
1 27848U 03031J   22233.82618367  .00000130  00000+0  78469-4 0  9990
2 27848  98.6844 241.0338 0008589 289.8286  70.1966 14.22035383992970
CUBESAT XI-V            
1 28895U 05043F   22233.84081264  .00000568  00000+0  11629-3 0  9999
2 28895  98.1146   4.2438 0015380 297.5059  62.4580 14.64434319896982
